[
    {
        "CCSDS_OMM_VERS": "3.0",
        "COMMENT": "GENERATED VIA SPACE-TRACK.ORG API",
        "CREATION_DATE": "2025-05-04T02:26:54",
        "ORIGINATOR": "18 SPCS",
        "OBJECT_NAME": "COSMOS 2500 (GLONASS)",
        "OBJECT_ID": "2014-032A",
        "CENTER_NAME": "EARTH",
        "REF_FRAME": "TEME",
        "TIME_SYSTEM": "UTC",
        "MEAN_ELEMENT_THEORY": "SGP4",
        "EPOCH": "2025-05-03T09:07:52.356576",
        "MEAN_MOTION": "2.13105985",
        "ECCENTRICITY": "0.00053800",
        "INCLINATION": "65.4633",
        "RA_OF_ASC_NODE": "327.6115",
        "ARG_OF_PERICENTER": "185.0119",
        "MEAN_ANOMALY": "175.0106",
        "EPHEMERIS_TYPE": "0",
        "CLASSIFICATION_TYPE": "U",
        "NORAD_CAT_ID": "40001",
        "ELEMENT_SET_NO": "999",
        "REV_AT_EPOCH": "8472",
        "BSTAR": "0.00000000000000",
        "MEAN_MOTION_DOT": "-0.00000048",
        "MEAN_MOTION_DDOT": "0.0000000000000",
        "SEMIMAJOR_AXIS": "25507.706",
        "PERIOD": "675.720",
        "APOAPSIS": "19143.295",
        "PERIAPSIS": "19115.848",
        "OBJECT_TYPE": "PAYLOAD",
        "RCS_SIZE": "LARGE",
        "COUNTRY_CODE": "CIS",
        "LAUNCH_DATE": "2014-06-14",
        "SITE": "PKMTR",
        "DECAY_DATE": null,
        "FILE": "4718307",
        "GP_ID": "286797097",
        "TLE_LINE0": "0 COSMOS 2500 (GLONASS)",
        "TLE_LINE1": "1 40001U 14032A   25123.38046709 -.00000048  00000-0  00000-0 0  9998",
        "TLE_LINE2": "2 40001  65.4633 327.6115 0005380 185.0119 175.0106  2.13105985 84725"
    }
]